NORAD_CAT_ID,OBJECT_NAME,OBJECT_TYPE,EPOCH,MEAN_MOTION,ECCENTRICITY,INCLINATION,RA_OF_ASC_NODE,ARG_OF_PERICENTER,MEAN_ANOMALY,BSTAR,MEAN_MOTION_DOT,MEAN_MOTION_DDOT,TLE_LINE0,TLE_LINE1,TLE_LINE2,SEMIMAJOR_AXIS,PERIOD,APOGEE,PERIGEE,DECAYED
53867.0,STARLINK-4793,PAYLOAD,2023-03-03 11:18:27,15.08844811,0.0001326,53.2175,182.2274,78.0322,282.0819,5.8756e-05,6.47e-06,0.0,0 STARLINK-4793,1 53867U 22114BB  23062.47115632  .00000647  00000-0  58756-4 0  9993,2 53867  53.2175 182.2274 0001326  78.0322 282.0819 15.08844811 26316,6917.866,95.437,540.648,538.813,0.0
53867.0,STARLINK-4793,PAYLOAD,2023-03-03 17:39:59,15.08863243,0.0001352,53.2175,181.0336,104.0236,256.0907,5.5289e-05,5.93e-06,0.0,0 STARLINK-4793,1 53867U 22114BB  23062.73610109  .00000593  00000-0  55289-4 0  9999,2 53867  53.2175 181.0336 0001352 104.0236 256.0907 15.08863243 26358,6917.809,95.436,540.61,538.739,0.0
53867.0,STARLINK-4793,PAYLOAD,2023-03-04 07:58:29,15.08826915,0.0001257,53.2173,178.3619,98.4551,261.6584,-0.00014942,-2.664e-05,0.0,0 STARLINK-4793,1 53867U 22114BB  23063.33229165 -.00002664  00000-0 -14942-3 0  9997,2 53867  53.2173 178.3619 0001257  98.4551 261.6584 15.08826915 26447,6917.92,95.438,540.655,538.916,0.0
53867.0,STARLINK-4793,PAYLOAD,2023-03-04 11:09:15,15.08836996,0.0001307,53.2185,177.7682,104.4154,255.6983,-5.898e-05,-1.226e-05,0.0,0 STARLINK-4793,1 53867U 22114BB  23063.46476337 -.00001226  00000-0 -58980-4 0  9990,2 53867  53.2185 177.7682 0001307 104.4154 255.6983 15.08836996 27005,6917.89,95.438,540.659,538.85,0.0
53867.0,STARLINK-4793,PAYLOAD,2023-03-04 12:44:38,15.08837049,0.0001361,53.2185,177.4706,107.6652,252.4489,-5.9708e-05,-1.238e-05,0.0,0 STARLINK-4793,1 53867U 22114BB  23063.53100310 -.00001238  00000-0 -59708-4 0  9995,2 53867  53.2185 177.4706 0001361 107.6652 252.4489 15.08837049 26473,6917.889,95.438,540.696,538.813,0.0
53867.0,STARLINK-4793,PAYLOAD,2023-03-04 17:30:46,15.08855624,8.96e-05,53.2189,176.5745,120.8881,239.2199,-8.4378e-06,-4.22e-06,0.0,0 STARLINK-4793,1 53867U 22114BB  23063.72970616 -.00000422  00000-0 -84378-5 0  9996,2 53867  53.2189 176.5745 0000896 120.8881 239.2199 15.08855624 26507,6917.833,95.437,540.317,539.078,0.0
53867.0,STARLINK-4793,PAYLOAD,2023-03-05 07:49:16,15.08833668,0.0001382,53.2194,173.9013,86.5319,273.5831,-0.00010894,-2.021e-05,0.0,0 STARLINK-4793,1 53867U 22114BB  23064.32588754 -.00002021  00000-0 -10894-3 0  9998,2 53867  53.2194 173.9013 0001382  86.5319 273.5831 15.08833668 26594,6917.9,95.438,540.721,538.809,0.0
53867.0,STARLINK-4793,PAYLOAD,2023-03-06 10:50:49,15.08840681,0.0001474,53.2202,168.8477,129.2399,230.8724,5.6995e-05,6.19e-06,0.0,0 STARLINK-4793,1 53867U 22114BB  23065.45195806  .00000619  00000-0  56995-4 0  9997,2 53867  53.2202 168.8477 0001474 129.2399 230.8724 15.08840681 26765,6917.878,95.438,540.763,538.724,0.0
53867.0,STARLINK-4793,PAYLOAD,2023-03-06 15:36:57,15.08856016,8.99e-05,53.2191,167.9527,122.5212,237.5867,0.00018601,2.675e-05,0.0,0 STARLINK-4793,1 53867U 22114BB  23065.65066426  .00002675  00000-0  18601-3 0  9999,2 53867  53.2191 167.9527 0000899 122.5212 237.5867 15.08856016 26792,6917.831,95.437,540.318,539.075,0.0
53867.0,STARLINK-4793,PAYLOAD,2023-03-07 05:55:27,15.08827522,0.0001436,53.2207,165.2809,105.7932,254.3219,3.0559e-05,1.98e-06,0.0,0 STARLINK-4793,1 53867U 22114BB  23066.24684917  .00000198  00000-0  30559-4 0  9991,2 53867  53.2207 165.2809 0001436 105.7932 254.3219 15.08827522 26882,6917.919,95.438,540.777,538.79,0.0
53867.0,STARLINK-4793,PAYLOAD,2023-03-07 17:03:07,15.08854131,0.0001666,53.2189,163.1959,124.4143,235.7007,0.0001412,1.961e-05,0.0,0 STARLINK-4793,1 53867U 22114BB  23066.71050717  .00001961  00000-0  14120-3 0  9992,2 53867  53.2189 163.1959 0001666 124.4143 235.7007 15.08854131 26953,6917.837,95.437,540.855,538.55,0.0
53867.0,STARLINK-4793,PAYLOAD,2023-03-07 23:24:41,15.08846791,0.0001043,53.2189,162.0067,118.8546,241.255,-7.412e-05,-1.467e-05,0.0,0 STARLINK-4793,1 53867U 22114BB  23066.97548127 -.00001467  00000-0 -74120-4 0  9997,2 53867  53.2189 162.0067 0001043 118.8546 241.2550 15.08846791 26996,6917.86,95.437,540.446,539.003,0.0
53867.0,STARLINK-4793,PAYLOAD,2023-03-08 15:18:32,15.08851114,0.0001937,53.2192,159.0334,99.0956,261.0256,-1.7275e-05,-5.63e-06,0.0,0 STARLINK-4793,1 53867U 22114BB  23067.63787645 -.00000563  00000-0 -17275-4 0  9995,2 53867  53.2192 159.0334 0001937  99.0956 261.0256 15.08851114 27630,6917.846,95.437,541.051,538.371,0.0
53867.0,STARLINK-4793,PAYLOAD,2023-03-09 11:58:31,15.08868483,0.0001639,53.2191,155.1667,145.9656,214.1441,5.8052e-05,6.37e-06,0.0,0 STARLINK-4793,1 53867U 22114BB  23068.49898063  .00000637  00000-0  58052-4 0  9995,2 53867  53.2191 155.1667 0001639 145.9656 214.1441 15.08868483 27229,6917.793,95.436,540.792,538.525,0.0
53867.0,STARLINK-4793,PAYLOAD,2023-03-10 05:27:49,15.08816929,0.0001765,53.2193,151.8971,104.0783,256.0405,-0.00015662,-2.778e-05,0.0,0 STARLINK-4793,1 53867U 22114BB  23069.22766102 -.00002778  00000-0 -15662-3 0  9994,2 53867  53.2193 151.8971 0001765 104.0783 256.0405 15.08816929 27334,6917.951,95.439,541.037,538.595,0.0
53867.0,STARLINK-4793,PAYLOAD,2023-03-10 11:49:21,15.08833152,0.0001951,53.2198,150.7074,98.617,261.5043,-9.4309e-05,-1.789e-05,0.0,0 STARLINK-4793,1 53867U 22114BB  23069.49261256 -.00001789  00000-0 -94309-4 0  9990,2 53867  53.2198 150.7074 0001951  98.6170 261.5043 15.08833152 27376,6917.901,95.438,541.116,538.417,0.0
53867.0,STARLINK-4793,PAYLOAD,2023-03-11 10:04:45,15.08842564,0.000177,53.219,146.547,116.5113,243.606,-0.00013446,-2.428e-05,0.0,0 STARLINK-4793,1 53867U 22114BB  23070.41997324 -.00002428  00000-0 -13446-3 0  9999,2 53867  53.2190 146.5470 0001770 116.5113 243.6060 15.08842564 28050,6917.873,95.437,540.962,538.513,0.0
53867.0,STARLINK-4793,PAYLOAD,2023-03-11 14:50:53,15.08849177,0.0001757,53.2191,145.6533,107.6971,252.4213,9.1354e-05,1.166e-05,0.0,0 STARLINK-4793,1 53867U 22114BB  23070.61868012  .00001166  00000-0  91354-4 0  9993,2 53867  53.2191 145.6533 0001757 107.6971 252.4213 15.08849177 27547,6917.852,95.437,540.933,538.502,0.0
53867.0,STARLINK-4793,PAYLOAD,2023-03-12 06:44:46,15.08825778,0.0002096,53.2202,142.6817,98.0653,262.0576,0.00020622,2.994e-05,0.0,0 STARLINK-4793,1 53867U 22114BB  23071.28109211  .00002994  00000-0  20622-3 0  9995,2 53867  53.2202 142.6817 0002096  98.0653 262.0576 15.08825778 27640,6917.924,95.438,541.239,538.339,0.0
53867.0,STARLINK-4793,PAYLOAD,2023-03-12 11:30:53,15.08857832,0.000186,53.2182,141.7856,111.955,248.164,0.00026097,3.87e-05,0.0,0 STARLINK-4793,1 53867U 22114BB  23071.47979105  .00003870  00000-0  26097-3 0  9999,2 53867  53.2182 141.7856 0001860 111.9550 248.1640 15.08857832 27675,6917.826,95.436,540.978,538.404,0.0
53867.0,STARLINK-4793,PAYLOAD,2023-03-13 05:00:10,15.08840781,0.0002091,53.2192,138.5154,118.309,241.8113,-2.3005e-05,-6.54e-06,0.0,0 STARLINK-4793,1 53867U 22114BB  23072.20845181 -.00000654  00000-0 -23005-4 0  9993,2 53867  53.2192 138.5154 0002091 118.3090 241.8113 15.08840781 27780,6917.878,95.438,541.19,538.296,0.0
53867.0,STARLINK-4793,PAYLOAD,2023-03-13 06:35:34,15.08831782,0.0001524,53.2187,138.2181,111.9215,248.1939,-9.3994e-05,-1.783e-05,0.0,0 STARLINK-4793,1 53867U 22114BB  23072.27469936 -.00001783  00000-0 -93994-4 0  9998,2 53867  53.2187 138.2181 0001524 111.9215 248.1939 15.08831782 27797,6917.906,95.438,540.825,538.716,0.0
53867.0,STARLINK-4793,PAYLOAD,2023-03-13 12:57:05,15.08839599,0.0001442,53.2185,137.0288,114.8593,245.2549,-2.5393e-05,-6.92e-06,0.0,0 STARLINK-4793,1 53867U 22114BB  23072.53965227 -.00000692  00000-0 -25393-4 0  9997,2 53867  53.2185 137.0288 0001442 114.8593 245.2549 15.08839599 28374,6917.882,95.438,540.744,538.749,0.0
53867.0,STARLINK-4793,PAYLOAD,2023-03-14 04:50:58,15.08840432,0.0001349,53.2182,134.0557,96.5793,263.5353,-0.00024914,-4.251e-05,0.0,0 STARLINK-4793,1 53867U 22114BB  23073.20206291 -.00004251  00000-0 -24914-3 0  9993,2 53867  53.2182 134.0557 0001349  96.5793 263.5353 15.08840432 27936,6917.879,95.438,540.677,538.811,0.0
53867.0,STARLINK-4793,PAYLOAD,2023-03-14 11:12:30,15.08848137,0.0001322,53.2182,132.8672,95.2388,264.8755,-0.00015743,-2.793e-05,0.0,0 STARLINK-4793,1 53867U 22114BB  23073.46701430 -.00002793  00000-0 -15743-3 0  9995,2 53867  53.2182 132.8672 0001322  95.2388 264.8755 15.08848137 27971,6917.856,95.437,540.635,538.806,0.0
53867.0,STARLINK-4793,PAYLOAD,2023-03-14 20:44:48,15.08851941,0.0001398,53.2185,131.083,89.3998,270.7154,-0.0001205,-2.206e-05,0.0,0 STARLINK-4793,1 53867U 22114BB  23073.86444899 -.00002206  00000-0 -12050-3 0  9999,2 53867  53.2185 131.0830 0001398  89.3998 270.7154 15.08851941 28578,6917.844,95.437,540.676,538.742,0.0
53867.0,STARLINK-4793,PAYLOAD,2023-03-15 12:38:37,15.08859556,0.0001139,53.218,128.1052,102.8161,257.2959,0.00029119,4.352e-05,0.0,0 STARLINK-4793,1 53867U 22114BB  23074.52682680  .00004352  00000-0  29119-3 0  9991,2 53867  53.2180 128.1052 0001139 102.8161 257.2959 15.08859556 28137,6917.821,95.436,540.474,538.898,0.0
53867.0,STARLINK-4793,PAYLOAD,2023-03-15 20:35:35,15.08833691,0.000103,53.2178,126.6226,90.7715,269.3395,6.9859e-05,8.24e-06,0.0,0 STARLINK-4793,1 53867U 22114BB  23074.85804962  .00000824  00000-0  69859-4 0  9992,2 53867  53.2178 126.6226 0001030  90.7715 269.3395 15.08833691 28725,6917.9,95.438,540.477,539.052,0.0
53867.0,STARLINK-4793,PAYLOAD,2023-03-16 12:29:27,15.08833358,0.0001392,53.2186,123.6478,92.647,267.4681,-8.3452e-06,-4.21e-06,0.0,0 STARLINK-4793,1 53867U 22114BB  23075.52045691 -.00000421  00000-0 -83452-5 0  9994,2 53867  53.2186 123.6478 0001392  92.6470 267.4681 15.08833358 28828,6917.901,95.438,540.729,538.803,0.0
53867.0,STARLINK-4793,PAYLOAD,2023-03-16 20:26:24,15.08829285,0.0001331,53.2188,122.1608,82.3173,277.797,-0.00018973,-3.305e-05,0.0,0 STARLINK-4793,1 53867U 22114BB  23075.85166706 -.00003305  00000-0 -18973-3 0  9999,2 53867  53.2188 122.1608 0001331  82.3173 277.7970 15.08829285 28333,6917.913,95.438,540.699,538.857,0.0
